STARLINK-36517          
1 67454U 26008K   26035.50002314 -.02019439  00000+0 -28617-1 0  9997
2 67454  43.0002  35.1389 0000938 269.1544 244.6764 15.59192366  4483
STARLINK-36516          
1 67455U 26008L   26035.50002314 -.02001188  00000+0 -25645-1 0  9998
2 67455  42.9998  35.0517 0000920 271.3137 278.1231 15.61745791  4460
STARLINK-36493          
1 67456U 26008M   26035.50002314 -.02034003  00000+0 -25239-1 0  9990
2 67456  43.0002  35.0393 0000892 269.4680 284.9559 15.62622248  4460
STARLINK-36529          
1 67457U 26008N   26035.50002314 -.02055837  00000+0 -20642-1 0  9992
2 67457  43.0003  34.9321 0000906 267.1637 330.2928 15.67890661  4460
STARLINK-36528          
1 67458U 26008P   26035.32709291  .00247395  00000+0  15625-2 0  9995
2 67458  42.9999  35.9192 0001574 310.3454  49.7277 15.75102809  4446
STARLINK-36546          
1 67459U 26008Q   26035.50002314 -.02065204  00000+0 -20696-1 0  9992
2 67459  43.0005  34.9168 0001073 264.4613 339.0528 15.67951241  4468
STARLINK-36523          
1 67460U 26008R   26035.50002314 -.02064189  00000+0 -20151-1 0  9991
2 67460  43.0001  34.9040 0000941 268.9592 339.9026 15.68581812  4481
STARLINK-36522          
1 67461U 26008S   26035.50002314 -.01994975  00000+0 -25174-1 0  9996
2 67461  43.0004  35.0221 0000813 276.5501 284.5604 15.62127555  4460
STARLINK-36504          
1 67462U 26008T   26035.00868680  .00209146  00000+0  13425-2 0  9991
2 67462  43.0000  37.8305 0002675 190.7377 169.3435 15.74843030  4396
STARLINK-36505          
1 67463U 26008U   26035.50002314 -.02077271  00000+0 -18948-1 0  9991
2 67463  43.0001  34.8713 0001213 261.1024   0.8873 15.70217233  4466
STARLINK-36421          
1 67464U 26008V   26035.50002314 -.01995798  00000+0 -25306-1 0  9990
2 67464  43.0000  35.0112 0000827 273.6783 291.9072 15.62006476  4462
STARLINK-36437          
1 67465U 26008W   26035.50002314 -.02051016  00000+0 -18388-1 0  9990
2 67465  43.0002  34.8573 0001237 261.1968   6.0861 15.70582437  4462
