CCSDS_OMM_VERS = 2.0
CREATION_DATE  = 
ORIGINATOR     = 

OBJECT_NAME    = STARLINK-36517
OBJECT_ID      = 2026-008K
CENTER_NAME    = EARTH
REF_FRAME      = TEME
TIME_SYSTEM    = UTC
MEAN_ELEMENT_THEORY = SGP/SGP4

EPOCH          = 2026-02-04T12:00:01.999296
MEAN_MOTION    = 15.59192366
ECCENTRICITY   = .0000938
INCLINATION    = 43.0002
RA_OF_ASC_NODE = 35.1389
ARG_OF_PERICENTER = 269.1544
MEAN_ANOMALY   = 244.6764

EPHEMERIS_TYPE = 0
CLASSIFICATION_TYPE = U
NORAD_CAT_ID   = 67454
ELEMENT_SET_NO = 999
REV_AT_EPOCH   = 448
BSTAR          = -.28617E-1
MEAN_MOTION_DOT = -.2019439E-1
MEAN_MOTION_DDOT = 0

CCSDS_OMM_VERS = 2.0
CREATION_DATE  = 
ORIGINATOR     = 

OBJECT_NAME    = STARLINK-36516
OBJECT_ID      = 2026-008L
CENTER_NAME    = EARTH
REF_FRAME      = TEME
TIME_SYSTEM    = UTC
MEAN_ELEMENT_THEORY = SGP/SGP4

EPOCH          = 2026-02-04T12:00:01.999296
MEAN_MOTION    = 15.61745791
ECCENTRICITY   = .000092
INCLINATION    = 42.9998
RA_OF_ASC_NODE = 35.0517
ARG_OF_PERICENTER = 271.3137
MEAN_ANOMALY   = 278.1231

EPHEMERIS_TYPE = 0
CLASSIFICATION_TYPE = U
NORAD_CAT_ID   = 67455
ELEMENT_SET_NO = 999
REV_AT_EPOCH   = 446
BSTAR          = -.25645E-1
MEAN_MOTION_DOT = -.2001188E-1
MEAN_MOTION_DDOT = 0

CCSDS_OMM_VERS = 2.0
CREATION_DATE  = 
ORIGINATOR     = 

OBJECT_NAME    = STARLINK-36493
OBJECT_ID      = 2026-008M
CENTER_NAME    = EARTH
REF_FRAME      = TEME
TIME_SYSTEM    = UTC
MEAN_ELEMENT_THEORY = SGP/SGP4

EPOCH          = 2026-02-04T12:00:01.999296
MEAN_MOTION    = 15.62622248
ECCENTRICITY   = .0000892
INCLINATION    = 43.0002
RA_OF_ASC_NODE = 35.0393
ARG_OF_PERICENTER = 269.4680
MEAN_ANOMALY   = 284.9559

EPHEMERIS_TYPE = 0
CLASSIFICATION_TYPE = U
NORAD_CAT_ID   = 67456
ELEMENT_SET_NO = 999
REV_AT_EPOCH   = 446
BSTAR          = -.25239E-1
MEAN_MOTION_DOT = -.2034003E-1
MEAN_MOTION_DDOT = 0

CCSDS_OMM_VERS = 2.0
CREATION_DATE  = 
ORIGINATOR     = 

OBJECT_NAME    = STARLINK-36529
OBJECT_ID      = 2026-008N
CENTER_NAME    = EARTH
REF_FRAME      = TEME
TIME_SYSTEM    = UTC
MEAN_ELEMENT_THEORY = SGP/SGP4

EPOCH          = 2026-02-04T12:00:01.999296
MEAN_MOTION    = 15.67890661
ECCENTRICITY   = .0000906
INCLINATION    = 43.0003
RA_OF_ASC_NODE = 34.9321
ARG_OF_PERICENTER = 267.1637
MEAN_ANOMALY   = 330.2928

EPHEMERIS_TYPE = 0
CLASSIFICATION_TYPE = U
NORAD_CAT_ID   = 67457
ELEMENT_SET_NO = 999
REV_AT_EPOCH   = 446
BSTAR          = -.20642E-1
MEAN_MOTION_DOT = -.2055837E-1
MEAN_MOTION_DDOT = 0

CCSDS_OMM_VERS = 2.0
CREATION_DATE  = 
ORIGINATOR     = 

OBJECT_NAME    = STARLINK-36528
OBJECT_ID      = 2026-008P
CENTER_NAME    = EARTH
REF_FRAME      = TEME
TIME_SYSTEM    = UTC
MEAN_ELEMENT_THEORY = SGP/SGP4

EPOCH          = 2026-02-04T07:51:00.827424
MEAN_MOTION    = 15.75102809
ECCENTRICITY   = .0001574
INCLINATION    = 42.9999
RA_OF_ASC_NODE = 35.9192
ARG_OF_PERICENTER = 310.3454
MEAN_ANOMALY   = 49.7277

EPHEMERIS_TYPE = 0
CLASSIFICATION_TYPE = U
NORAD_CAT_ID   = 67458
ELEMENT_SET_NO = 999
REV_AT_EPOCH   = 444
BSTAR          = .15625E-2
MEAN_MOTION_DOT = .247395E-2
MEAN_MOTION_DDOT = 0

CCSDS_OMM_VERS = 2.0
CREATION_DATE  = 
ORIGINATOR     = 

OBJECT_NAME    = STARLINK-36546
OBJECT_ID      = 2026-008Q
CENTER_NAME    = EARTH
REF_FRAME      = TEME
TIME_SYSTEM    = UTC
MEAN_ELEMENT_THEORY = SGP/SGP4

EPOCH          = 2026-02-04T12:00:01.999296
MEAN_MOTION    = 15.67951241
ECCENTRICITY   = .0001073
INCLINATION    = 43.0005
RA_OF_ASC_NODE = 34.9168
ARG_OF_PERICENTER = 264.4613
MEAN_ANOMALY   = 339.0528

EPHEMERIS_TYPE = 0
CLASSIFICATION_TYPE = U
NORAD_CAT_ID   = 67459
ELEMENT_SET_NO = 999
REV_AT_EPOCH   = 446
BSTAR          = -.20696E-1
MEAN_MOTION_DOT = -.2065204E-1
MEAN_MOTION_DDOT = 0

CCSDS_OMM_VERS = 2.0
CREATION_DATE  = 
ORIGINATOR     = 

OBJECT_NAME    = STARLINK-36523
OBJECT_ID      = 2026-008R
CENTER_NAME    = EARTH
REF_FRAME      = TEME
TIME_SYSTEM    = UTC
MEAN_ELEMENT_THEORY = SGP/SGP4

EPOCH          = 2026-02-04T12:00:01.999296
MEAN_MOTION    = 15.68581812
ECCENTRICITY   = .0000941
INCLINATION    = 43.0001
RA_OF_ASC_NODE = 34.9040
ARG_OF_PERICENTER = 268.9592
MEAN_ANOMALY   = 339.9026

EPHEMERIS_TYPE = 0
CLASSIFICATION_TYPE = U
NORAD_CAT_ID   = 67460
ELEMENT_SET_NO = 999
REV_AT_EPOCH   = 448
BSTAR          = -.20151E-1
MEAN_MOTION_DOT = -.2064189E-1
MEAN_MOTION_DDOT = 0

CCSDS_OMM_VERS = 2.0
CREATION_DATE  = 
ORIGINATOR     = 

OBJECT_NAME    = STARLINK-36522
OBJECT_ID      = 2026-008S
CENTER_NAME    = EARTH
REF_FRAME      = TEME
TIME_SYSTEM    = UTC
MEAN_ELEMENT_THEORY = SGP/SGP4

EPOCH          = 2026-02-04T12:00:01.999296
MEAN_MOTION    = 15.62127555
ECCENTRICITY   = .0000813
INCLINATION    = 43.0004
RA_OF_ASC_NODE = 35.0221
ARG_OF_PERICENTER = 276.5501
MEAN_ANOMALY   = 284.5604

EPHEMERIS_TYPE = 0
CLASSIFICATION_TYPE = U
NORAD_CAT_ID   = 67461
ELEMENT_SET_NO = 999
REV_AT_EPOCH   = 446
BSTAR          = -.25174E-1
MEAN_MOTION_DOT = -.1994975E-1
MEAN_MOTION_DDOT = 0

CCSDS_OMM_VERS = 2.0
CREATION_DATE  = 
ORIGINATOR     = 

OBJECT_NAME    = STARLINK-36504
OBJECT_ID      = 2026-008T
CENTER_NAME    = EARTH
REF_FRAME      = TEME
TIME_SYSTEM    = UTC
MEAN_ELEMENT_THEORY = SGP/SGP4

EPOCH          = 2026-02-04T00:12:30.539520
MEAN_MOTION    = 15.74843030
ECCENTRICITY   = .00026759
INCLINATION    = 43.0000
RA_OF_ASC_NODE = 37.8305
ARG_OF_PERICENTER = 190.7377
MEAN_ANOMALY   = 169.3435

EPHEMERIS_TYPE = 0
CLASSIFICATION_TYPE = U
NORAD_CAT_ID   = 67462
ELEMENT_SET_NO = 999
REV_AT_EPOCH   = 439
BSTAR          = .13424593E-2
MEAN_MOTION_DOT = .209146E-2
MEAN_MOTION_DDOT = 0

CCSDS_OMM_VERS = 2.0
CREATION_DATE  = 
ORIGINATOR     = 

OBJECT_NAME    = STARLINK-36505
OBJECT_ID      = 2026-008U
CENTER_NAME    = EARTH
REF_FRAME      = TEME
TIME_SYSTEM    = UTC
MEAN_ELEMENT_THEORY = SGP/SGP4

EPOCH          = 2026-02-04T12:00:01.999296
MEAN_MOTION    = 15.70217233
ECCENTRICITY   = .0001213
INCLINATION    = 43.0001
RA_OF_ASC_NODE = 34.8713
ARG_OF_PERICENTER = 261.1024
MEAN_ANOMALY   = 0.8873

EPHEMERIS_TYPE = 0
CLASSIFICATION_TYPE = U
NORAD_CAT_ID   = 67463
ELEMENT_SET_NO = 999
REV_AT_EPOCH   = 446
BSTAR          = -.18948E-1
MEAN_MOTION_DOT = -.2077271E-1
MEAN_MOTION_DDOT = 0

CCSDS_OMM_VERS = 2.0
CREATION_DATE  = 
ORIGINATOR     = 

OBJECT_NAME    = STARLINK-36421
OBJECT_ID      = 2026-008V
CENTER_NAME    = EARTH
REF_FRAME      = TEME
TIME_SYSTEM    = UTC
MEAN_ELEMENT_THEORY = SGP/SGP4

EPOCH          = 2026-02-04T12:00:01.999296
MEAN_MOTION    = 15.62006476
ECCENTRICITY   = .0000827
INCLINATION    = 43.0000
RA_OF_ASC_NODE = 35.0112
ARG_OF_PERICENTER = 273.6783
MEAN_ANOMALY   = 291.9072

EPHEMERIS_TYPE = 0
CLASSIFICATION_TYPE = U
NORAD_CAT_ID   = 67464
ELEMENT_SET_NO = 999
REV_AT_EPOCH   = 446
BSTAR          = -.25306E-1
MEAN_MOTION_DOT = -.1995798E-1
MEAN_MOTION_DDOT = 0

CCSDS_OMM_VERS = 2.0
CREATION_DATE  = 
ORIGINATOR     = 

OBJECT_NAME    = STARLINK-36437
OBJECT_ID      = 2026-008W
CENTER_NAME    = EARTH
REF_FRAME      = TEME
TIME_SYSTEM    = UTC
MEAN_ELEMENT_THEORY = SGP/SGP4

EPOCH          = 2026-02-04T12:00:01.999296
MEAN_MOTION    = 15.70582437
ECCENTRICITY   = .0001237
INCLINATION    = 43.0002
RA_OF_ASC_NODE = 34.8573
ARG_OF_PERICENTER = 261.1968
MEAN_ANOMALY   = 6.0861

EPHEMERIS_TYPE = 0
CLASSIFICATION_TYPE = U
NORAD_CAT_ID   = 67465
ELEMENT_SET_NO = 999
REV_AT_EPOCH   = 446
BSTAR          = -.18388E-1
MEAN_MOTION_DOT = -.2051016E-1
MEAN_MOTION_DDOT = 0

